PIESAT B                
1 56154U 23047B   26068.57334719  .00003244  00000+0  18082-3 0  9992
2 56154  97.5017 257.1462 0001556 107.7309 252.4093 15.14300167162724
STARLINK-30790          
1 58127U 23162K   26068.22212918  .00039164  00000+0  21713-2 0  9994
2 58127  42.9975 130.2155 0010343  31.6175 328.5291 15.13105037132295
